CCSDS_OMM_VERS = 2.0
CREATION_DATE  = 
ORIGINATOR     = 

OBJECT_NAME    = STARLINK-36660
OBJECT_ID      = 2026-033AD
CENTER_NAME    = EARTH
REF_FRAME      = TEME
TIME_SYSTEM    = UTC
MEAN_ELEMENT_THEORY = SGP/SGP4

EPOCH          = 2026-03-01T20:19:46.555104
MEAN_MOTION    = 15.82075435
ECCENTRICITY   = .00018411
INCLINATION    = 42.9982
RA_OF_ASC_NODE = 319.3206
ARG_OF_PERICENTER = 263.5218
MEAN_ANOMALY   = 96.5444

EPHEMERIS_TYPE = 0
CLASSIFICATION_TYPE = U
NORAD_CAT_ID   = 67848
ELEMENT_SET_NO = 999
REV_AT_EPOCH   = 338
BSTAR          = .10300388E-2
MEAN_MOTION_DOT = .222644E-2
MEAN_MOTION_DDOT = 0

CCSDS_OMM_VERS = 2.0
CREATION_DATE  = 
ORIGINATOR     = 

OBJECT_NAME    = STARLINK-36602
OBJECT_ID      = 2026-033AE
CENTER_NAME    = EARTH
REF_FRAME      = TEME
TIME_SYSTEM    = UTC
MEAN_ELEMENT_THEORY = SGP/SGP4

EPOCH          = 2026-03-01T20:18:41.250528
MEAN_MOTION    = 15.82019999
ECCENTRICITY   = .00015792
INCLINATION    = 42.9976
RA_OF_ASC_NODE = 319.3148
ARG_OF_PERICENTER = 269.3647
MEAN_ANOMALY   = 90.7044

EPHEMERIS_TYPE = 0
CLASSIFICATION_TYPE = U
NORAD_CAT_ID   = 67849
ELEMENT_SET_NO = 999
REV_AT_EPOCH   = 338
BSTAR          = .66927563E-3
MEAN_MOTION_DOT = .142765E-2
MEAN_MOTION_DDOT = 0

CCSDS_OMM_VERS = 2.0
CREATION_DATE  = 
ORIGINATOR     = 

OBJECT_NAME    = STARLINK-36840
OBJECT_ID      = 2026-034A
CENTER_NAME    = EARTH
REF_FRAME      = TEME
TIME_SYSTEM    = UTC
MEAN_ELEMENT_THEORY = SGP/SGP4

EPOCH          = 2026-03-01T22:00:01.999584
MEAN_MOTION    = 15.80875534
ECCENTRICITY   = .00009467
INCLINATION    = 53.1569
RA_OF_ASC_NODE = 250.3154
ARG_OF_PERICENTER = 89.2703
MEAN_ANOMALY   = 49.0850

EPHEMERIS_TYPE = 0
CLASSIFICATION_TYPE = U
NORAD_CAT_ID   = 67850
ELEMENT_SET_NO = 999
REV_AT_EPOCH   = 266
BSTAR          = .14963188E-3
MEAN_MOTION_DOT = .28936E-3
MEAN_MOTION_DDOT = 0

CCSDS_OMM_VERS = 2.0
CREATION_DATE  = 
ORIGINATOR     = 

OBJECT_NAME    = STARLINK-36348
OBJECT_ID      = 2026-034B
CENTER_NAME    = EARTH
REF_FRAME      = TEME
TIME_SYSTEM    = UTC
MEAN_ELEMENT_THEORY = SGP/SGP4

EPOCH          = 2026-03-01T22:00:01.999584
MEAN_MOTION    = 15.80847047
ECCENTRICITY   = .0001354
INCLINATION    = 53.1563
RA_OF_ASC_NODE = 250.3063
ARG_OF_PERICENTER = 72.5839
MEAN_ANOMALY   = 70.0453

EPHEMERIS_TYPE = 0
CLASSIFICATION_TYPE = U
NORAD_CAT_ID   = 67851
ELEMENT_SET_NO = 999
REV_AT_EPOCH   = 261
BSTAR          = .19958863E-3
MEAN_MOTION_DOT = .38824E-3
MEAN_MOTION_DDOT = 0

CCSDS_OMM_VERS = 2.0
CREATION_DATE  = 
ORIGINATOR     = 

OBJECT_NAME    = STARLINK-36276
OBJECT_ID      = 2026-034C
CENTER_NAME    = EARTH
REF_FRAME      = TEME
TIME_SYSTEM    = UTC
MEAN_ELEMENT_THEORY = SGP/SGP4

EPOCH          = 2026-03-01T22:00:01.999584
MEAN_MOTION    = 15.80808270
ECCENTRICITY   = .00007059
INCLINATION    = 53.1559
RA_OF_ASC_NODE = 250.2972
ARG_OF_PERICENTER = 63.4672
MEAN_ANOMALY   = 83.4276

EPHEMERIS_TYPE = 0
CLASSIFICATION_TYPE = U
NORAD_CAT_ID   = 67852
ELEMENT_SET_NO = 999
REV_AT_EPOCH   = 261
BSTAR          = .54562796E-3
MEAN_MOTION_DOT = .108022E-2
MEAN_MOTION_DDOT = 0

CCSDS_OMM_VERS = 2.0
CREATION_DATE  = 
ORIGINATOR     = 

OBJECT_NAME    = STARLINK-36785
OBJECT_ID      = 2026-034D
CENTER_NAME    = EARTH
REF_FRAME      = TEME
TIME_SYSTEM    = UTC
MEAN_ELEMENT_THEORY = SGP/SGP4

EPOCH          = 2026-03-01T22:00:01.999584
MEAN_MOTION    = 15.80802424
ECCENTRICITY   = .00009128
INCLINATION    = 53.1559
RA_OF_ASC_NODE = 250.2882
ARG_OF_PERICENTER = 79.8033
MEAN_ANOMALY   = 71.3697

EPHEMERIS_TYPE = 0
CLASSIFICATION_TYPE = U
NORAD_CAT_ID   = 67853
ELEMENT_SET_NO = 999
REV_AT_EPOCH   = 261
BSTAR          = .63194238E-3
MEAN_MOTION_DOT = .125442E-2
MEAN_MOTION_DDOT = 0

CCSDS_OMM_VERS = 2.0
CREATION_DATE  = 
ORIGINATOR     = 

OBJECT_NAME    = STARLINK-36608
OBJECT_ID      = 2026-034E
CENTER_NAME    = EARTH
REF_FRAME      = TEME
TIME_SYSTEM    = UTC
MEAN_ELEMENT_THEORY = SGP/SGP4

EPOCH          = 2026-03-01T22:00:01.999584
MEAN_MOTION    = 15.80839695
ECCENTRICITY   = .00010211
INCLINATION    = 53.1541
RA_OF_ASC_NODE = 250.2795
ARG_OF_PERICENTER = 75.6188
MEAN_ANOMALY   = 79.8216

EPHEMERIS_TYPE = 0
CLASSIFICATION_TYPE = U
NORAD_CAT_ID   = 67854
ELEMENT_SET_NO = 999
REV_AT_EPOCH   = 261
BSTAR          = .45248661E-3
MEAN_MOTION_DOT = .89398E-3
MEAN_MOTION_DDOT = 0

CCSDS_OMM_VERS = 2.0
CREATION_DATE  = 
ORIGINATOR     = 

OBJECT_NAME    = STARLINK-36838
OBJECT_ID      = 2026-034F
CENTER_NAME    = EARTH
REF_FRAME      = TEME
TIME_SYSTEM    = UTC
MEAN_ELEMENT_THEORY = SGP/SGP4

EPOCH          = 2026-03-01T22:00:01.999584
MEAN_MOTION    = 15.80852801
ECCENTRICITY   = .00013435
INCLINATION    = 53.1541
RA_OF_ASC_NODE = 250.2702
ARG_OF_PERICENTER = 76.9660
MEAN_ANOMALY   = 82.7494

EPHEMERIS_TYPE = 0
CLASSIFICATION_TYPE = U
NORAD_CAT_ID   = 67855
ELEMENT_SET_NO = 999
REV_AT_EPOCH   = 261
BSTAR          = .12726243E-3
MEAN_MOTION_DOT = .24466E-3
MEAN_MOTION_DDOT = 0

CCSDS_OMM_VERS = 2.0
CREATION_DATE  = 
ORIGINATOR     = 

OBJECT_NAME    = STARLINK-36843
OBJECT_ID      = 2026-034G
CENTER_NAME    = EARTH
REF_FRAME      = TEME
TIME_SYSTEM    = UTC
MEAN_ELEMENT_THEORY = SGP/SGP4

EPOCH          = 2026-03-01T22:00:01.999584
MEAN_MOTION    = 15.80833089
ECCENTRICITY   = .0000899
INCLINATION    = 53.1544
RA_OF_ASC_NODE = 250.2531
ARG_OF_PERICENTER = 70.3936
MEAN_ANOMALY   = 97.8707

EPHEMERIS_TYPE = 0
CLASSIFICATION_TYPE = U
NORAD_CAT_ID   = 67856
ELEMENT_SET_NO = 999
REV_AT_EPOCH   = 261
BSTAR          = .37432503E-3
MEAN_MOTION_DOT = .73677E-3
MEAN_MOTION_DDOT = 0

CCSDS_OMM_VERS = 2.0
CREATION_DATE  = 
ORIGINATOR     = 

OBJECT_NAME    = STARLINK-36828
OBJECT_ID      = 2026-034H
CENTER_NAME    = EARTH
REF_FRAME      = TEME
TIME_SYSTEM    = UTC
MEAN_ELEMENT_THEORY = SGP/SGP4

EPOCH          = 2026-03-01T22:00:01.999584
MEAN_MOTION    = 15.80837891
ECCENTRICITY   = .00009486
INCLINATION    = 53.1544
RA_OF_ASC_NODE = 250.2621
ARG_OF_PERICENTER = 62.0915
MEAN_ANOMALY   = 101.9005

EPHEMERIS_TYPE = 0
CLASSIFICATION_TYPE = U
NORAD_CAT_ID   = 67857
ELEMENT_SET_NO = 999
REV_AT_EPOCH   = 261
BSTAR          = .26230144E-3
MEAN_MOTION_DOT = .51295E-3
MEAN_MOTION_DDOT = 0

CCSDS_OMM_VERS = 2.0
CREATION_DATE  = 
ORIGINATOR     = 

OBJECT_NAME    = STARLINK-36837
OBJECT_ID      = 2026-034J
CENTER_NAME    = EARTH
REF_FRAME      = TEME
TIME_SYSTEM    = UTC
MEAN_ELEMENT_THEORY = SGP/SGP4

EPOCH          = 2026-03-01T22:00:01.999584
MEAN_MOTION    = 15.80860497
ECCENTRICITY   = .00012252
INCLINATION    = 53.1539
RA_OF_ASC_NODE = 250.2438
ARG_OF_PERICENTER = 100.2884
MEAN_ANOMALY   = 72.1804

EPHEMERIS_TYPE = 0
CLASSIFICATION_TYPE = U
NORAD_CAT_ID   = 67858
ELEMENT_SET_NO = 999
REV_AT_EPOCH   = 261
BSTAR          = .47609452E-3
MEAN_MOTION_DOT = .94244E-3
MEAN_MOTION_DDOT = 0

CCSDS_OMM_VERS = 2.0
CREATION_DATE  = 
ORIGINATOR     = 

OBJECT_NAME    = STARLINK-36393
OBJECT_ID      = 2026-034K
CENTER_NAME    = EARTH
REF_FRAME      = TEME
TIME_SYSTEM    = UTC
MEAN_ELEMENT_THEORY = SGP/SGP4

EPOCH          = 2026-03-01T22:00:01.999584
MEAN_MOTION    = 15.80854821
ECCENTRICITY   = .00004723
INCLINATION    = 53.1538
RA_OF_ASC_NODE = 250.2348
ARG_OF_PERICENTER = 92.6848
MEAN_ANOMALY   = 84.1218

EPHEMERIS_TYPE = 0
CLASSIFICATION_TYPE = U
NORAD_CAT_ID   = 67859
ELEMENT_SET_NO = 999
REV_AT_EPOCH   = 261
BSTAR          = .74170251E-4
MEAN_MOTION_DOT = .13952E-3
MEAN_MOTION_DDOT = 0

