STARLINK-36660          
1 67848U 26033AD  26060.84706661  .00222644  00000+0  10300-2 0  9994
2 67848  42.9982 319.3206 0001841 263.5218  96.5444 15.82075435  3380
STARLINK-36602          
1 67849U 26033AE  26060.84631077  .00142765  00000+0  66928-3 0  9996
2 67849  42.9976 319.3148 0001579 269.3647  90.7044 15.82019999  3382
STARLINK-36840          
1 67850U 26034A   26060.91668981  .00028936  00000+0  14963-3 0  9996
2 67850  53.1569 250.3154 0000946  89.2703  49.0850 15.80875534  2661
STARLINK-36348          
1 67851U 26034B   26060.91668981  .00038824  00000+0  19959-3 0  9994
2 67851  53.1563 250.3063 0001354  72.5839  70.0453 15.80847047  2610
STARLINK-36276          
1 67852U 26034C   26060.91668981  .00108022  00000+0  54563-3 0  9993
2 67852  53.1559 250.2972 0000705  63.4672  83.4276 15.80808270  2613
STARLINK-36785          
1 67853U 26034D   26060.91668981  .00125442  00000+0  63194-3 0  9999
2 67853  53.1559 250.2882 0000912  79.8033  71.3697 15.80802424  2614
STARLINK-36608          
1 67854U 26034E   26060.91668981  .00089398  00000+0  45249-3 0  9990
2 67854  53.1541 250.2795 0001021  75.6188  79.8216 15.80839695  2616
STARLINK-36838          
1 67855U 26034F   26060.91668981  .00024466  00000+0  12726-3 0  9990
2 67855  53.1541 250.2702 0001343  76.9660  82.7494 15.80852801  2616
STARLINK-36843          
1 67856U 26034G   26060.91668981  .00073677  00000+0  37433-3 0  9991
2 67856  53.1544 250.2531 0000899  70.3936  97.8707 15.80833089  2610
STARLINK-36828          
1 67857U 26034H   26060.91668981  .00051295  00000+0  26230-3 0  9997
2 67857  53.1544 250.2621 0000948  62.0915 101.9005 15.80837891  2614
STARLINK-36837          
1 67858U 26034J   26060.91668981  .00094244  00000+0  47609-3 0  9992
2 67858  53.1539 250.2438 0001225 100.2884  72.1804 15.80860497  2618
STARLINK-36393          
1 67859U 26034K   26060.91668981  .00013952  00000+0  74170-4 0  9994
2 67859  53.1538 250.2348 0000472  92.6848  84.1218 15.80854821  2611
